ORBCOMM FM115           
1 41186U 15081H   24261.37280567  .00005153  00000+0  10687-2 0  9995
2 41186  46.9971 256.0010 0001380 276.2514  83.8215 14.61248644467858
ORBCOMM FM108           
1 41187U 15081J   24261.44644901  .00006286  00000+0  14194-2 0  9995
2 41187  47.0048 314.0937 0001228 148.1811 211.9148 14.57033949467008
ORBCOMM FM117           
1 41188U 15081K   24261.48130061  .00006395  00000+0  14433-2 0  9994
2 41188  47.0008 312.7838 0002068 165.5265 194.5679 14.57037474467056
ORBCOMM FM116           
1 41189U 15081L   24261.74551885  .00005450  00000+0  12354-2 0  9996
2 41189  47.0022  41.3713 0003028 239.8228 120.2358 14.57046326465976
